[{"OBJECT_NAME":"GEESAT-4 05","OBJECT_ID":"2025-170E","EPOCH":"2026-03-09T22:10:53.623200","MEAN_MOTION":15.15083101,"ECCENTRICITY":0.00102728,"INCLINATION":50.0002,"RA_OF_ASC_NODE":229.6714,"ARG_OF_PERICENTER":163.1129,"MEAN_ANOMALY":197.0167,"EPHEMERIS_TYPE":0,"CLASSIFICATION_TYPE":"U","NORAD_CAT_ID":65123,"ELEMENT_SET_NO":999,"REV_AT_EPOCH":3229,"BSTAR":0.00052791785,"MEAN_MOTION_DOT":9.735e-5,"MEAN_MOTION_DDOT":0},{"OBJECT_NAME":"COSMOS 252 DEB","OBJECT_ID":"1968-097R","EPOCH":"2026-03-09T21:14:17.625408","MEAN_MOTION":14.2586139,"ECCENTRICITY":0.04048142,"INCLINATION":62.2843,"RA_OF_ASC_NODE":299.467,"ARG_OF_PERICENTER":222.0036,"MEAN_ANOMALY":134.9322,"EPHEMERIS_TYPE":0,"CLASSIFICATION_TYPE":"U","NORAD_CAT_ID":3565,"ELEMENT_SET_NO":999,"REV_AT_EPOCH":82919,"BSTAR":0.00082009185,"MEAN_MOTION_DOT":4.523e-5,"MEAN_MOTION_DDOT":0}]
